IRS-P5 (CARTOSAT-1)     
1 28649U 05017A   26201.69872495  .00000618  00000+0  67623-4 0  9995
2 28649  97.5306 223.2435 0001031  55.1525 304.9791 14.91125421148815
KAZEOSAT 1              
1 39731U 14024A   26201.95125046 -.00000046  00000+0 -11631-5 0  9995
2 39731  98.3189 273.5557 0001199  87.5653 272.5675 14.42038114643422
KAZEOSAT 2              
1 40010U 14033A   26201.97715484  .00000575  00000+0  72432-4 0  9990
2 40010  97.5397  39.8016 0007826 198.0039 162.0901 14.85504825653978
JASON-3                 
1 41240U 16002A   26201.94449878 -.00000057  00000+0  21483-4 0  9998
2 41240  66.0416  54.8643 0008131 270.3488  89.6599 12.87628888491593
KAZSTSAT                
1 43783U 18099AB  26201.05321022  .00000021  00000+0  61511-5 0  9999
2 43783  97.4309 231.5017 0007190 320.5226  39.5473 14.99958351416236
INSAT-3DS               
1 58990U 24033A   26201.84843096 -.00000156  00000+0  00000+0 0  9997
2 58990   0.0760 263.7096 0001293 220.1689 202.2239  1.00270778 47409
IONOSFERA-M 1           
1 61735U 24199A   26201.95016636  .00000013  00000+0  25561-4 0  9990
2 61735  98.7128  74.7589 0002070  64.3894 295.7497 14.22759890132503
IONOSFERA-M 2           
1 61736U 24199B   26201.91405674  .00000013  00000+0  25231-4 0  9995
2 61736  98.7126  74.6335 0000719 130.6754 229.4486 14.22763235135626
IONOSFERA-M 3           
1 64876U 25155A   26201.89157564  .00000027  00000+0  32038-4 0  9993
2 64876  98.6045 162.9518 0002421 103.7724 256.3723 14.21491480 51198
IONOSFERA-M 4           
1 64877U 25155B   26201.92635891  .00000033  00000+0  34804-4 0  9992
2 64877  98.6044 162.9028 0001886  93.6080 266.5313 14.21493922 51191
