{
 "generated_at": "2026-07-21T07:32:50Z",
 "sources": [
  {
   "name": "CelesTrak",
   "url": "https://celestrak.org/NORAD/elements/",
   "license": "frei verfügbar; Attribution. Ursprünglich USSPACECOM/Space-Track."
  },
  {
   "name": "GCAT (J. McDowell, planet4589.org)",
   "url": "https://planet4589.org/space/gcat/",
   "license": "CC-BY 4.0"
  }
 ],
 "satellites": [
  {
   "norad": 58990,
   "name": "INSAT-3DS",
   "intl": "2024-033A",
   "group": "weather",
   "gcat": {
    "class": "C",
    "category": "MET",
    "owner": "ISRO",
    "state": "IN"
   },
   "omm": {
    "OBJECT_NAME": "INSAT-3DS",
    "OBJECT_ID": "2024-033A",
    "EPOCH": "2026-07-20T20:21:44.434944",
    "MEAN_MOTION": 1.00270778,
    "ECCENTRICITY": 0.00012938,
    "INCLINATION": 0.076,
    "RA_OF_ASC_NODE": 263.7096,
    "ARG_OF_PERICENTER": 220.1689,
    "MEAN_ANOMALY": 202.2239,
    "EPHEMERIS_TYPE": 0,
    "CLASSIFICATION_TYPE": "U",
    "NORAD_CAT_ID": 58990,
    "ELEMENT_SET_NO": 999,
    "REV_AT_EPOCH": 4740,
    "BSTAR": 0,
    "MEAN_MOTION_DOT": -0.00000156,
    "MEAN_MOTION_DDOT": 0
   }
  },
  {
   "norad": 61735,
   "name": "IONOSFERA-M 1",
   "intl": "2024-199A",
   "group": "resource",
   "gcat": {
    "class": "C",
    "category": "SCI",
    "owner": "VNIIEMI",
    "state": "RU"
   },
   "omm": {
    "OBJECT_NAME": "IONOSFERA-M 1",
    "OBJECT_ID": "2024-199A",
    "EPOCH": "2026-07-20T22:48:14.373504",
    "MEAN_MOTION": 14.2275989,
    "ECCENTRICITY": 0.00020707,
    "INCLINATION": 98.7128,
    "RA_OF_ASC_NODE": 74.7589,
    "ARG_OF_PERICENTER": 64.3894,
    "MEAN_ANOMALY": 295.7497,
    "EPHEMERIS_TYPE": 0,
    "CLASSIFICATION_TYPE": "U",
    "NORAD_CAT_ID": 61735,
    "ELEMENT_SET_NO": 999,
    "REV_AT_EPOCH": 13250,
    "BSTAR": 0.000025560654,
    "MEAN_MOTION_DOT": 1.3e-7,
    "MEAN_MOTION_DDOT": 0
   }
  },
  {
   "norad": 61736,
   "name": "IONOSFERA-M 2",
   "intl": "2024-199B",
   "group": "resource",
   "gcat": {
    "class": "C",
    "category": "SCI",
    "owner": "VNIIEMI",
    "state": "RU"
   },
   "omm": {
    "OBJECT_NAME": "IONOSFERA-M 2",
    "OBJECT_ID": "2024-199B",
    "EPOCH": "2026-07-20T21:56:14.502336",
    "MEAN_MOTION": 14.22763235,
    "ECCENTRICITY": 0.00007198,
    "INCLINATION": 98.7126,
    "RA_OF_ASC_NODE": 74.6335,
    "ARG_OF_PERICENTER": 130.6754,
    "MEAN_ANOMALY": 229.4486,
    "EPHEMERIS_TYPE": 0,
    "CLASSIFICATION_TYPE": "U",
    "NORAD_CAT_ID": 61736,
    "ELEMENT_SET_NO": 999,
    "REV_AT_EPOCH": 13562,
    "BSTAR": 0.000025231294,
    "MEAN_MOTION_DOT": 1.3e-7,
    "MEAN_MOTION_DDOT": 0
   }
  },
  {
   "norad": 64876,
   "name": "IONOSFERA-M 3",
   "intl": "2025-155A",
   "group": "resource",
   "gcat": {
    "class": "C",
    "category": "SCI",
    "owner": "VNIIEMI",
    "state": "RU"
   },
   "omm": {
    "OBJECT_NAME": "IONOSFERA-M 3",
    "OBJECT_ID": "2025-155A",
    "EPOCH": "2026-07-20T21:23:52.135296",
    "MEAN_MOTION": 14.2149148,
    "ECCENTRICITY": 0.00024215,
    "INCLINATION": 98.6045,
    "RA_OF_ASC_NODE": 162.9518,
    "ARG_OF_PERICENTER": 103.7724,
    "MEAN_ANOMALY": 256.3723,
    "EPHEMERIS_TYPE": 0,
    "CLASSIFICATION_TYPE": "U",
    "NORAD_CAT_ID": 64876,
    "ELEMENT_SET_NO": 999,
    "REV_AT_EPOCH": 5119,
    "BSTAR": 0.000032037618,
    "MEAN_MOTION_DOT": 2.7e-7,
    "MEAN_MOTION_DDOT": 0
   }
  },
  {
   "norad": 64877,
   "name": "IONOSFERA-M 4",
   "intl": "2025-155B",
   "group": "resource",
   "gcat": {
    "class": "C",
    "category": "SCI",
    "owner": "VNIIEMI",
    "state": "RU"
   },
   "omm": {
    "OBJECT_NAME": "IONOSFERA-M 4",
    "OBJECT_ID": "2025-155B",
    "EPOCH": "2026-07-20T22:13:57.409824",
    "MEAN_MOTION": 14.21493922,
    "ECCENTRICITY": 0.00018869,
    "INCLINATION": 98.6044,
    "RA_OF_ASC_NODE": 162.9028,
    "ARG_OF_PERICENTER": 93.608,
    "MEAN_ANOMALY": 266.5313,
    "EPHEMERIS_TYPE": 0,
    "CLASSIFICATION_TYPE": "U",
    "NORAD_CAT_ID": 64877,
    "ELEMENT_SET_NO": 999,
    "REV_AT_EPOCH": 5119,
    "BSTAR": 0.000034804193,
    "MEAN_MOTION_DOT": 3.3e-7,
    "MEAN_MOTION_DDOT": 0
   }
  },
  {
   "norad": 28649,
   "name": "IRS-P5 (CARTOSAT-1)",
   "intl": "2005-017A",
   "group": "resource",
   "gcat": {
    "class": null,
    "category": null,
    "owner": null,
    "state": null
   },
   "omm": {
    "OBJECT_NAME": "IRS-P5 (CARTOSAT-1)",
    "OBJECT_ID": "2005-017A",
    "EPOCH": "2026-07-20T16:46:09.835680",
    "MEAN_MOTION": 14.91125421,
    "ECCENTRICITY": 0.00010316,
    "INCLINATION": 97.5306,
    "RA_OF_ASC_NODE": 223.2435,
    "ARG_OF_PERICENTER": 55.1525,
    "MEAN_ANOMALY": 304.9791,
    "EPHEMERIS_TYPE": 0,
    "CLASSIFICATION_TYPE": "U",
    "NORAD_CAT_ID": 28649,
    "ELEMENT_SET_NO": 999,
    "REV_AT_EPOCH": 14881,
    "BSTAR": 0.000067622595,
    "MEAN_MOTION_DOT": 0.00000618,
    "MEAN_MOTION_DDOT": 0
   }
  },
  {
   "norad": 41240,
   "name": "JASON-3",
   "intl": "2016-002A",
   "group": "resource",
   "gcat": {
    "class": "C",
    "category": "SCI/MET",
    "owner": "CNES/NOAA",
    "state": "F"
   },
   "omm": {
    "OBJECT_NAME": "JASON-3",
    "OBJECT_ID": "2016-002A",
    "EPOCH": "2026-07-20T22:40:04.694592",
    "MEAN_MOTION": 12.87628888,
    "ECCENTRICITY": 0.00081319,
    "INCLINATION": 66.0416,
    "RA_OF_ASC_NODE": 54.8643,
    "ARG_OF_PERICENTER": 270.3488,
    "MEAN_ANOMALY": 89.6599,
    "EPHEMERIS_TYPE": 0,
    "CLASSIFICATION_TYPE": "U",
    "NORAD_CAT_ID": 41240,
    "ELEMENT_SET_NO": 999,
    "REV_AT_EPOCH": 49159,
    "BSTAR": 0.000021483376,
    "MEAN_MOTION_DOT": -5.7e-7,
    "MEAN_MOTION_DDOT": 0
   }
  },
  {
   "norad": 39731,
   "name": "KAZEOSAT 1",
   "intl": "2014-024A",
   "group": "resource",
   "gcat": {
    "class": "C",
    "category": "IMG",
    "owner": "KAZK",
    "state": "KZ"
   },
   "omm": {
    "OBJECT_NAME": "KAZEOSAT 1",
    "OBJECT_ID": "2014-024A",
    "EPOCH": "2026-07-20T22:49:48.039744",
    "MEAN_MOTION": 14.42038114,
    "ECCENTRICITY": 0.00011993,
    "INCLINATION": 98.3189,
    "RA_OF_ASC_NODE": 273.5557,
    "ARG_OF_PERICENTER": 87.5653,
    "MEAN_ANOMALY": 272.5675,
    "EPHEMERIS_TYPE": 0,
    "CLASSIFICATION_TYPE": "U",
    "NORAD_CAT_ID": 39731,
    "ELEMENT_SET_NO": 999,
    "REV_AT_EPOCH": 64342,
    "BSTAR": -0.0000011631,
    "MEAN_MOTION_DOT": -4.6e-7,
    "MEAN_MOTION_DDOT": 0
   }
  },
  {
   "norad": 40010,
   "name": "KAZEOSAT 2",
   "intl": "2014-033A",
   "group": "resource",
   "gcat": {
    "class": "C",
    "category": "IMG",
    "owner": "KAZK",
    "state": "KZ"
   },
   "omm": {
    "OBJECT_NAME": "KAZEOSAT 2",
    "OBJECT_ID": "2014-033A",
    "EPOCH": "2026-07-20T23:27:06.178176",
    "MEAN_MOTION": 14.85504825,
    "ECCENTRICITY": 0.00078261,
    "INCLINATION": 97.5397,
    "RA_OF_ASC_NODE": 39.8016,
    "ARG_OF_PERICENTER": 198.0039,
    "MEAN_ANOMALY": 162.0901,
    "EPHEMERIS_TYPE": 0,
    "CLASSIFICATION_TYPE": "U",
    "NORAD_CAT_ID": 40010,
    "ELEMENT_SET_NO": 999,
    "REV_AT_EPOCH": 65397,
    "BSTAR": 0.000072432071,
    "MEAN_MOTION_DOT": 0.00000575,
    "MEAN_MOTION_DDOT": 0
   }
  },
  {
   "norad": 43783,
   "name": "KAZSTSAT",
   "intl": "2018-099AB",
   "group": "resource",
   "gcat": {
    "class": "B",
    "category": "IMG",
    "owner": "GHALAM",
    "state": "KZ"
   },
   "omm": {
    "OBJECT_NAME": "KAZSTSAT",
    "OBJECT_ID": "2018-099AB",
    "EPOCH": "2026-07-20T01:16:37.363008",
    "MEAN_MOTION": 14.99958351,
    "ECCENTRICITY": 0.00071903,
    "INCLINATION": 97.4309,
    "RA_OF_ASC_NODE": 231.5017,
    "ARG_OF_PERICENTER": 320.5226,
    "MEAN_ANOMALY": 39.5473,
    "EPHEMERIS_TYPE": 0,
    "CLASSIFICATION_TYPE": "U",
    "NORAD_CAT_ID": 43783,
    "ELEMENT_SET_NO": 999,
    "REV_AT_EPOCH": 41623,
    "BSTAR": 0.000006151122,
    "MEAN_MOTION_DOT": 2.1e-7,
    "MEAN_MOTION_DDOT": 0
   }
  }
 ]
}
